{
    "links": {
        "self": "http://www.neowsapp.com/rest/v1/neo/3799259?api_key=iIulBulltgU6a56xZRHN4H3l9WmuAYTsLGpBGhQ2"
    },
    "id": "3799259",
    "neo_reference_id": "3799259",
    "name": "(2017 UR52)",
    "designation": "2017 UR52",
    "nasa_jpl_url": "http://ssd.jpl.nasa.gov/sbdb.cgi?sstr=3799259",
    "absolute_magnitude_h": 21.2,
    "estimated_diameter": {
        "kilometers": {
            "estimated_diameter_min": 0.1529519353,
            "estimated_diameter_max": 0.3420109247
        },
        "meters": {
            "estimated_diameter_min": 152.9519353442,
            "estimated_diameter_max": 342.0109247198
        },
        "miles": {
            "estimated_diameter_min": 0.095039897,
            "estimated_diameter_max": 0.2125156703
        },
        "feet": {
            "estimated_diameter_min": 501.8108275547,
            "estimated_diameter_max": 1122.0831222578
        }
    },
    "is_potentially_hazardous_asteroid": false,
    "close_approach_data": [
        {
            "close_approach_date": "2017-11-01",
            "close_approach_date_full": "2017-Nov-01 00:42",
            "epoch_date_close_approach": 1509496920000,
            "relative_velocity": {
                "kilometers_per_second": "53.9070998196",
                "kilometers_per_hour": "194065.5593505629",
                "miles_per_hour": "120584.791586465"
            },
            "miss_distance": {
                "astronomical": "0.3267888215",
                "lunar": "127.1208515635",
                "kilometers": "48886911.636210205",
                "miles": "30376918.294322629"
            },
            "orbiting_body": "Earth"
        }
    ],
    "orbital_data": {
        "orbit_id": "1",
        "orbit_determination_date": "2018-02-08 18:12:05",
        "first_observation_date": "2017-10-29",
        "last_observation_date": "2017-11-24",
        "data_arc_in_days": 26,
        "observations_used": 63,
        "orbit_uncertainty": "6",
        "minimum_orbit_intersection": ".320347",
        "jupiter_tisserand_invariant": "-0.417",
        "epoch_osculation": "2459000.5",
        "eccentricity": ".9964761209405196",
        "semi_major_axis": "352.6283756441357",
        "inclination": "108.2326920607843",
        "ascending_node_longitude": "219.9078869189623",
        "orbital_period": "2418657.156965231",
        "perihelion_distance": "1.242619748710948",
        "perihelion_argument": "151.165280463775",
        "aphelion_distance": "704.0141315395605",
        "perihelion_time": "2458030.630811177574",
        "mean_anomaly": ".1443581645999663",
        "mean_motion": ".0001488429225958192",
        "equinox": "J2000",
        "orbit_class": {
            "orbit_class_type": "AMO",
            "orbit_class_description": "Near-Earth asteroid orbits similar to that of 1221 Amor",
            "orbit_class_range": "1.017 AU < q (perihelion) < 1.3 AU"
        }
    },
    "is_sentry_object": false
}